IRIDIUM 7               
1 24793U 97020B   24346.49966608  .00000856  00000+0  29022-3 0  9996
2 24793  86.3962 255.5153 0002312  76.2004 283.9449 14.35656116444968
IRIDIUM 5               
1 24795U 97020D   24346.57851101  .00006831  00000+0  59620-3 0  9994
2 24795  86.3917 170.0101 0116919  90.3790 271.0835 14.91439188457503
IRIDIUM 4               
1 24796U 97020E   24346.46234576  .00000882  00000+0  29354-3 0  9995
2 24796  86.3960 252.5298 0002321  82.2614 277.8847 14.36569637445541
IRIDIUM 914             
1 24836U 97030A   24346.49972198  .00001108  00000+0  34200-3 0  9991
2 24836  86.3935 261.6847 0003783  98.3333 261.8295 14.40526184580105
IRIDIUM 16              
1 24841U 97030F   24346.59694455  .00001030  00000+0  33186-3 0  9991
2 24841  86.4020 284.0940 0002177  25.2823 334.8481 14.38389115440032
IRIDIUM 911             
1 24842U 97030G   24346.56282150  .00001486  00000+0  40137-3 0  9993
2 24842  86.4444 283.0699 0014844  12.6918 347.4656 14.47190451447946
IRIDIUM 17              
1 24870U 97034B   24346.46823714  .00001124  00000+0  36930-3 0  9999
2 24870  86.3943 313.7187 0000672  78.4727 281.6546 14.37490181436616
IRIDIUM 920             
1 24871U 97034C   24346.29899349  .00001212  00000+0  36953-3 0  9991
2 24871  86.3957 293.4392 0011267 353.7837   6.3221 14.41196736439515
