<?xml version="1.0" encoding="UTF-8"?>
<ndm xmlns:xsi="http://www.w3.org/2001/XMLSchema-instance" xsi:noNamespaceSchemaLocation="https://sanaregistry.org/r/ndmxml_unqualified/ndmxml-2.0.0-master-2.0.xsd">
<omm id="CCSDS_OMM_VERS" version="2.0">
<header><CREATION_DATE/><ORIGINATOR/></header><body><segment><metadata><OBJECT_NAME>IRIDIUM 7</OBJECT_NAME><OBJECT_ID>1997-020B</OBJECT_ID><CENTER_NAME>EARTH</CENTER_NAME><REF_FRAME>TEME</REF_FRAME><TIME_SYSTEM>UTC</TIME_SYSTEM><MEAN_ELEMENT_THEORY>SGP4</MEAN_ELEMENT_THEORY></metadata><data><meanElements><EPOCH>2024-12-11T11:59:31.149312</EPOCH><MEAN_MOTION>14.35656116</MEAN_MOTION><ECCENTRICITY>.0002312</ECCENTRICITY><INCLINATION>86.3962</INCLINATION><RA_OF_ASC_NODE>255.5153</RA_OF_ASC_NODE><ARG_OF_PERICENTER>76.2004</ARG_OF_PERICENTER><MEAN_ANOMALY>283.9449</MEAN_ANOMALY></meanElements><tleParameters><EPHEMERIS_TYPE>0</EPHEMERIS_TYPE><CLASSIFICATION_TYPE>U</CLASSIFICATION_TYPE><NORAD_CAT_ID>24793</NORAD_CAT_ID><ELEMENT_SET_NO>999</ELEMENT_SET_NO><REV_AT_EPOCH>44496</REV_AT_EPOCH><BSTAR>.29022E-3</BSTAR><MEAN_MOTION_DOT>.856E-5</MEAN_MOTION_DOT><MEAN_MOTION_DDOT>0</MEAN_MOTION_DDOT></tleParameters></data></segment></body></omm>
<omm id="CCSDS_OMM_VERS" version="2.0">
<header><CREATION_DATE/><ORIGINATOR/></header><body><segment><metadata><OBJECT_NAME>IRIDIUM 5</OBJECT_NAME><OBJECT_ID>1997-020D</OBJECT_ID><CENTER_NAME>EARTH</CENTER_NAME><REF_FRAME>TEME</REF_FRAME><TIME_SYSTEM>UTC</TIME_SYSTEM><MEAN_ELEMENT_THEORY>SGP4</MEAN_ELEMENT_THEORY></metadata><data><meanElements><EPOCH>2024-12-11T13:53:03.351264</EPOCH><MEAN_MOTION>14.91439188</MEAN_MOTION><ECCENTRICITY>.0116919</ECCENTRICITY><INCLINATION>86.3917</INCLINATION><RA_OF_ASC_NODE>170.0101</RA_OF_ASC_NODE><ARG_OF_PERICENTER>90.3790</ARG_OF_PERICENTER><MEAN_ANOMALY>271.0835</MEAN_ANOMALY></meanElements><tleParameters><EPHEMERIS_TYPE>0</EPHEMERIS_TYPE><CLASSIFICATION_TYPE>U</CLASSIFICATION_TYPE><NORAD_CAT_ID>24795</NORAD_CAT_ID><ELEMENT_SET_NO>999</ELEMENT_SET_NO><REV_AT_EPOCH>45750</REV_AT_EPOCH><BSTAR>.5962E-3</BSTAR><MEAN_MOTION_DOT>.6831E-4</MEAN_MOTION_DOT><MEAN_MOTION_DDOT>0</MEAN_MOTION_DDOT></tleParameters></data></segment></body></omm>
<omm id="CCSDS_OMM_VERS" version="2.0">
<header><CREATION_DATE/><ORIGINATOR/></header><body><segment><metadata><OBJECT_NAME>IRIDIUM 4</OBJECT_NAME><OBJECT_ID>1997-020E</OBJECT_ID><CENTER_NAME>EARTH</CENTER_NAME><REF_FRAME>TEME</REF_FRAME><TIME_SYSTEM>UTC</TIME_SYSTEM><MEAN_ELEMENT_THEORY>SGP4</MEAN_ELEMENT_THEORY></metadata><data><meanElements><EPOCH>2024-12-11T11:05:46.673664</EPOCH><MEAN_MOTION>14.36569637</MEAN_MOTION><ECCENTRICITY>.0002321</ECCENTRICITY><INCLINATION>86.3960</INCLINATION><RA_OF_ASC_NODE>252.5298</RA_OF_ASC_NODE><ARG_OF_PERICENTER>82.2614</ARG_OF_PERICENTER><MEAN_ANOMALY>277.8847</MEAN_ANOMALY></meanElements><tleParameters><EPHEMERIS_TYPE>0</EPHEMERIS_TYPE><CLASSIFICATION_TYPE>U</CLASSIFICATION_TYPE><NORAD_CAT_ID>24796</NORAD_CAT_ID><ELEMENT_SET_NO>999</ELEMENT_SET_NO><REV_AT_EPOCH>44554</REV_AT_EPOCH><BSTAR>.29354E-3</BSTAR><MEAN_MOTION_DOT>.882E-5</MEAN_MOTION_DOT><MEAN_MOTION_DDOT>0</MEAN_MOTION_DDOT></tleParameters></data></segment></body></omm>
<omm id="CCSDS_OMM_VERS" version="2.0">
<header><CREATION_DATE/><ORIGINATOR/></header><body><segment><metadata><OBJECT_NAME>IRIDIUM 914</OBJECT_NAME><OBJECT_ID>1997-030A</OBJECT_ID><CENTER_NAME>EARTH</CENTER_NAME><REF_FRAME>TEME</REF_FRAME><TIME_SYSTEM>UTC</TIME_SYSTEM><MEAN_ELEMENT_THEORY>SGP4</MEAN_ELEMENT_THEORY></metadata><data><meanElements><EPOCH>2024-12-11T11:59:35.979072</EPOCH><MEAN_MOTION>14.40526184</MEAN_MOTION><ECCENTRICITY>.0003783</ECCENTRICITY><INCLINATION>86.3935</INCLINATION><RA_OF_ASC_NODE>261.6847</RA_OF_ASC_NODE><ARG_OF_PERICENTER>98.3333</ARG_OF_PERICENTER><MEAN_ANOMALY>261.8295</MEAN_ANOMALY></meanElements><tleParameters><EPHEMERIS_TYPE>0</EPHEMERIS_TYPE><CLASSIFICATION_TYPE>U</CLASSIFICATION_TYPE><NORAD_CAT_ID>24836</NORAD_CAT_ID><ELEMENT_SET_NO>999</ELEMENT_SET_NO><REV_AT_EPOCH>58010</REV_AT_EPOCH><BSTAR>.342E-3</BSTAR><MEAN_MOTION_DOT>.1108E-4</MEAN_MOTION_DOT><MEAN_MOTION_DDOT>0</MEAN_MOTION_DDOT></tleParameters></data></segment></body></omm>
<omm id="CCSDS_OMM_VERS" version="2.0">
<header><CREATION_DATE/><ORIGINATOR/></header><body><segment><metadata><OBJECT_NAME>IRIDIUM 16</OBJECT_NAME><OBJECT_ID>1997-030F</OBJECT_ID><CENTER_NAME>EARTH</CENTER_NAME><REF_FRAME>TEME</REF_FRAME><TIME_SYSTEM>UTC</TIME_SYSTEM><MEAN_ELEMENT_THEORY>SGP4</MEAN_ELEMENT_THEORY></metadata><data><meanElements><EPOCH>2024-12-11T14:19:36.009120</EPOCH><MEAN_MOTION>14.38389115</MEAN_MOTION><ECCENTRICITY>.0002177</ECCENTRICITY><INCLINATION>86.4020</INCLINATION><RA_OF_ASC_NODE>284.0940</RA_OF_ASC_NODE><ARG_OF_PERICENTER>25.2823</ARG_OF_PERICENTER><MEAN_ANOMALY>334.8481</MEAN_ANOMALY></meanElements><tleParameters><EPHEMERIS_TYPE>0</EPHEMERIS_TYPE><CLASSIFICATION_TYPE>U</CLASSIFICATION_TYPE><NORAD_CAT_ID>24841</NORAD_CAT_ID><ELEMENT_SET_NO>999</ELEMENT_SET_NO><REV_AT_EPOCH>44003</REV_AT_EPOCH><BSTAR>.33186E-3</BSTAR><MEAN_MOTION_DOT>.103E-4</MEAN_MOTION_DOT><MEAN_MOTION_DDOT>0</MEAN_MOTION_DDOT></tleParameters></data></segment></body></omm>
<omm id="CCSDS_OMM_VERS" version="2.0">
<header><CREATION_DATE/><ORIGINATOR/></header><body><segment><metadata><OBJECT_NAME>IRIDIUM 911</OBJECT_NAME><OBJECT_ID>1997-030G</OBJECT_ID><CENTER_NAME>EARTH</CENTER_NAME><REF_FRAME>TEME</REF_FRAME><TIME_SYSTEM>UTC</TIME_SYSTEM><MEAN_ELEMENT_THEORY>SGP4</MEAN_ELEMENT_THEORY></metadata><data><meanElements><EPOCH>2024-12-11T13:30:27.777600</EPOCH><MEAN_MOTION>14.47190451</MEAN_MOTION><ECCENTRICITY>.0014844</ECCENTRICITY><INCLINATION>86.4444</INCLINATION><RA_OF_ASC_NODE>283.0699</RA_OF_ASC_NODE><ARG_OF_PERICENTER>12.6918</ARG_OF_PERICENTER><MEAN_ANOMALY>347.4656</MEAN_ANOMALY></meanElements><tleParameters><EPHEMERIS_TYPE>0</EPHEMERIS_TYPE><CLASSIFICATION_TYPE>U</CLASSIFICATION_TYPE><NORAD_CAT_ID>24842</NORAD_CAT_ID><ELEMENT_SET_NO>999</ELEMENT_SET_NO><REV_AT_EPOCH>44794</REV_AT_EPOCH><BSTAR>.40137E-3</BSTAR><MEAN_MOTION_DOT>.1486E-4</MEAN_MOTION_DOT><MEAN_MOTION_DDOT>0</MEAN_MOTION_DDOT></tleParameters></data></segment></body></omm>
<omm id="CCSDS_OMM_VERS" version="2.0">
<header><CREATION_DATE/><ORIGINATOR/></header><body><segment><metadata><OBJECT_NAME>IRIDIUM 17</OBJECT_NAME><OBJECT_ID>1997-034B</OBJECT_ID><CENTER_NAME>EARTH</CENTER_NAME><REF_FRAME>TEME</REF_FRAME><TIME_SYSTEM>UTC</TIME_SYSTEM><MEAN_ELEMENT_THEORY>SGP4</MEAN_ELEMENT_THEORY></metadata><data><meanElements><EPOCH>2024-12-11T11:14:15.688896</EPOCH><MEAN_MOTION>14.37490181</MEAN_MOTION><ECCENTRICITY>.0000672</ECCENTRICITY><INCLINATION>86.3943</INCLINATION><RA_OF_ASC_NODE>313.7187</RA_OF_ASC_NODE><ARG_OF_PERICENTER>78.4727</ARG_OF_PERICENTER><MEAN_ANOMALY>281.6546</MEAN_ANOMALY></meanElements><tleParameters><EPHEMERIS_TYPE>0</EPHEMERIS_TYPE><CLASSIFICATION_TYPE>U</CLASSIFICATION_TYPE><NORAD_CAT_ID>24870</NORAD_CAT_ID><ELEMENT_SET_NO>999</ELEMENT_SET_NO><REV_AT_EPOCH>43661</REV_AT_EPOCH><BSTAR>.3693E-3</BSTAR><MEAN_MOTION_DOT>.1124E-4</MEAN_MOTION_DOT><MEAN_MOTION_DDOT>0</MEAN_MOTION_DDOT></tleParameters></data></segment></body></omm>
<omm id="CCSDS_OMM_VERS" version="2.0">
<header><CREATION_DATE/><ORIGINATOR/></header><body><segment><metadata><OBJECT_NAME>IRIDIUM 920</OBJECT_NAME><OBJECT_ID>1997-034C</OBJECT_ID><CENTER_NAME>EARTH</CENTER_NAME><REF_FRAME>TEME</REF_FRAME><TIME_SYSTEM>UTC</TIME_SYSTEM><MEAN_ELEMENT_THEORY>SGP4</MEAN_ELEMENT_THEORY></metadata><data><meanElements><EPOCH>2024-12-11T07:10:33.037536</EPOCH><MEAN_MOTION>14.41196736</MEAN_MOTION><ECCENTRICITY>.0011267</ECCENTRICITY><INCLINATION>86.3957</INCLINATION><RA_OF_ASC_NODE>293.4392</RA_OF_ASC_NODE><ARG_OF_PERICENTER>353.7837</ARG_OF_PERICENTER><MEAN_ANOMALY>6.3221</MEAN_ANOMALY></meanElements><tleParameters><EPHEMERIS_TYPE>0</EPHEMERIS_TYPE><CLASSIFICATION_TYPE>U</CLASSIFICATION_TYPE><NORAD_CAT_ID>24871</NORAD_CAT_ID><ELEMENT_SET_NO>999</ELEMENT_SET_NO><REV_AT_EPOCH>43951</REV_AT_EPOCH><BSTAR>.36953E-3</BSTAR><MEAN_MOTION_DOT>.1212E-4</MEAN_MOTION_DOT><MEAN_MOTION_DDOT>0</MEAN_MOTION_DDOT></tleParameters></data></segment></body></omm>

</ndm>
